*******************************************************************************
Ephemeris / WWW_USER Mon Mar 24 07:03:19 2025 Pasadena, USA      / Horizons    
*******************************************************************************
Target body name: Triton (801)                    {source: nep097_merged}
Center body name: Earth (399)                     {source: nep097_merged}
Center-site name: Mauna Kea
*******************************************************************************
Start time      : A.D. 2018-Sep-04 04:44:00.0000 UT      
Stop  time      : A.D. 2018-Sep-04 15:57:00.0000 UT      
Step-size       : 1 minutes
*******************************************************************************
Target pole/equ : IAU_TRITON                      {East-longitude positive}
Target radii    : 1352.6, 1352.6, 1352.6 km       {Equator_a, b, pole_c}       
Center geodetic : 204.5278, 19.8260847, 4.21024   {E-lon(deg),Lat(deg),Alt(km)}
Center cylindric: 204.5278, 6006.35451, 2151.0229 {E-lon(deg),Dxy(km),Dz(km)}
Center pole/equ : ITRF93                          {East-longitude positive}
Center radii    : 6378.137, 6378.137, 6356.752 km {Equator_a, b, pole_c}       
Target primary  : Neptune
Vis. interferer : MOON (R_eq= 1737.400) km        {source: DE441}
Rel. light bend : Sun                             {source: nep097_merged}
Rel. lght bnd GM: 1.3271E+11 km^3/s^2                                          
Atmos refraction: NO (AIRLESS)
RA format       : HMS
Time format     : CAL 
Calendar mode   : Mixed Julian/Gregorian
RTS-only print  : NO       
EOP file        : eop.250321.p250617                                           
EOP coverage    : DATA-BASED 1962-JAN-20 TO 2025-MAR-21. PREDICTS-> 2025-JUN-16
Units conversion: 1 au= 149597870.700 km, c= 299792.458 km/s, 1 day= 86400.0 s 
Table cut-offs 1: Elevation (-90.0deg=NO ),Airmass (>38.000=NO), Daylight (YES)
Table cut-offs 2: Solar elongation (  0.0,180.0=NO ),Local Hour Angle( 0.0=NO )
Table cut-offs 3: RA/DEC angular rate (     0.0=NO )                           
*******************************************************************************
 Date__(UT)__HR:MN     R.A._________(ICRF)_________DEC
******************************************************
$$SOE
 2018-Sep-04 14:04  m  23 05 56.383060 -06 52 16.83189
 2018-Sep-04 14:05  m  23 05 56.378285 -06 52 16.85528
 2018-Sep-04 14:06  m  23 05 56.373511 -06 52 16.87866
 2018-Sep-04 14:07  m  23 05 56.368737 -06 52 16.90203
 2018-Sep-04 14:08  m  23 05 56.363964 -06 52 16.92540
 2018-Sep-04 14:09  m  23 05 56.359192 -06 52 16.94875
 2018-Sep-04 14:10  m  23 05 56.354420 -06 52 16.97210
 2018-Sep-04 14:11  m  23 05 56.349649 -06 52 16.99544
 2018-Sep-04 14:12  m  23 05 56.344879 -06 52 17.01877
 2018-Sep-04 14:13  m  23 05 56.340109 -06 52 17.04209
 2018-Sep-04 14:14  m  23 05 56.335339 -06 52 17.06540
 2018-Sep-04 14:15  m  23 05 56.330571 -06 52 17.08871
 2018-Sep-04 14:16  m  23 05 56.325802 -06 52 17.11201
 2018-Sep-04 14:17  m  23 05 56.321035 -06 52 17.13529
 2018-Sep-04 14:18  m  23 05 56.316268 -06 52 17.15857
 2018-Sep-04 14:19  m  23 05 56.311502 -06 52 17.18185
 2018-Sep-04 14:20  m  23 05 56.306736 -06 52 17.20511
 2018-Sep-04 14:21  m  23 05 56.301971 -06 52 17.22836
 2018-Sep-04 14:22  m  23 05 56.297207 -06 52 17.25161
 2018-Sep-04 14:23  m  23 05 56.292443 -06 52 17.27485
 2018-Sep-04 14:24  m  23 05 56.287680 -06 52 17.29808
 2018-Sep-04 14:25  m  23 05 56.282918 -06 52 17.32130
 2018-Sep-04 14:26  m  23 05 56.278156 -06 52 17.34452
 2018-Sep-04 14:27  m  23 05 56.273395 -06 52 17.36772
 2018-Sep-04 14:28  m  23 05 56.268634 -06 52 17.39092
 2018-Sep-04 14:29  m  23 05 56.263874 -06 52 17.41411
 2018-Sep-04 14:30  m  23 05 56.259115 -06 52 17.43729
 2018-Sep-04 14:31  m  23 05 56.254356 -06 52 17.46046
 2018-Sep-04 14:32  m  23 05 56.249598 -06 52 17.48362
 2018-Sep-04 14:33  m  23 05 56.244841 -06 52 17.50678
 2018-Sep-04 14:34  m  23 05 56.240084 -06 52 17.52993
 2018-Sep-04 14:35  m  23 05 56.235328 -06 52 17.55306
 2018-Sep-04 14:36  m  23 05 56.230572 -06 52 17.57620
 2018-Sep-04 14:37  m  23 05 56.225817 -06 52 17.59932
 2018-Sep-04 14:38  m  23 05 56.221063 -06 52 17.62243
 2018-Sep-04 14:39  m  23 05 56.216309 -06 52 17.64554
 2018-Sep-04 14:40  m  23 05 56.211557 -06 52 17.66864
 2018-Sep-04 14:41  m  23 05 56.206804 -06 52 17.69173
 2018-Sep-04 14:42  m  23 05 56.202053 -06 52 17.71481
 2018-Sep-04 14:43  m  23 05 56.197302 -06 52 17.73788
 2018-Sep-04 14:44  m  23 05 56.192551 -06 52 17.76095
 2018-Sep-04 14:45  m  23 05 56.187802 -06 52 17.78400
 2018-Sep-04 14:46  m  23 05 56.183053 -06 52 17.80705
 2018-Sep-04 14:47  m  23 05 56.178304 -06 52 17.83009
 2018-Sep-04 14:48  m  23 05 56.173556 -06 52 17.85312
 2018-Sep-04 14:49  m  23 05 56.168809 -06 52 17.87615
 2018-Sep-04 14:50  m  23 05 56.164063 -06 52 17.89916
 2018-Sep-04 14:51  m  23 05 56.159317 -06 52 17.92217
 2018-Sep-04 14:52  m  23 05 56.154572 -06 52 17.94517
 2018-Sep-04 14:53 Am  23 05 56.149828 -06 52 17.96816
 2018-Sep-04 14:54 Am  23 05 56.145084 -06 52 17.99114
 2018-Sep-04 14:55 Am  23 05 56.140341 -06 52 18.01412
 2018-Sep-04 14:56 Am  23 05 56.135598 -06 52 18.03708
 2018-Sep-04 14:57 Am  23 05 56.130856 -06 52 18.06004
 2018-Sep-04 14:58 Am  23 05 56.126115 -06 52 18.08299
 2018-Sep-04 14:59 Am  23 05 56.121375 -06 52 18.10594
 2018-Sep-04 15:00 Am  23 05 56.116635 -06 52 18.12887
 2018-Sep-04 15:01 Am  23 05 56.111896 -06 52 18.15180
 2018-Sep-04 15:02 Am  23 05 56.107157 -06 52 18.17471
 2018-Sep-04 15:03 Am  23 05 56.102419 -06 52 18.19762
 2018-Sep-04 15:04 Am  23 05 56.097682 -06 52 18.22052
 2018-Sep-04 15:05 Am  23 05 56.092946 -06 52 18.24342
 2018-Sep-04 15:06 Am  23 05 56.088210 -06 52 18.26630
 2018-Sep-04 15:07 Am  23 05 56.083475 -06 52 18.28918
 2018-Sep-04 15:08 Am  23 05 56.078740 -06 52 18.31205
 2018-Sep-04 15:09 Am  23 05 56.074006 -06 52 18.33491
 2018-Sep-04 15:10 Am  23 05 56.069273 -06 52 18.35776
 2018-Sep-04 15:11 Am  23 05 56.064541 -06 52 18.38061
 2018-Sep-04 15:12 Am  23 05 56.059809 -06 52 18.40344
 2018-Sep-04 15:13 Am  23 05 56.055078 -06 52 18.42627
 2018-Sep-04 15:14 Am  23 05 56.050347 -06 52 18.44909
 2018-Sep-04 15:15 Am  23 05 56.045617 -06 52 18.47191
 2018-Sep-04 15:16 Am  23 05 56.040888 -06 52 18.49471
 2018-Sep-04 15:17 Am  23 05 56.036160 -06 52 18.51751
 2018-Sep-04 15:18 Am  23 05 56.031432 -06 52 18.54029
 2018-Sep-04 15:19 Nm  23 05 56.026705 -06 52 18.56307
 2018-Sep-04 15:20 Nm  23 05 56.021979 -06 52 18.58585
 2018-Sep-04 15:21 Nm  23 05 56.017253 -06 52 18.60861
 2018-Sep-04 15:22 Nm  23 05 56.012528 -06 52 18.63137
 2018-Sep-04 15:23 Nm  23 05 56.007804 -06 52 18.65411
 2018-Sep-04 15:24 Nm  23 05 56.003080 -06 52 18.67685
 2018-Sep-04 15:25 Nm  23 05 55.998357 -06 52 18.69959
 2018-Sep-04 15:26 Nm  23 05 55.993635 -06 52 18.72231
 2018-Sep-04 15:27 Nm  23 05 55.988913 -06 52 18.74503
 2018-Sep-04 15:28 Nm  23 05 55.984192 -06 52 18.76773
 2018-Sep-04 15:29 Nm  23 05 55.979472 -06 52 18.79043
 2018-Sep-04 15:30 Nm  23 05 55.974753 -06 52 18.81313
 2018-Sep-04 15:31 Nm  23 05 55.970034 -06 52 18.83581
 2018-Sep-04 15:32 Nm  23 05 55.965316 -06 52 18.85849
 2018-Sep-04 15:33 Nm  23 05 55.960598 -06 52 18.88115
 2018-Sep-04 15:34 Nm  23 05 55.955881 -06 52 18.90381
 2018-Sep-04 15:35 Nm  23 05 55.951165 -06 52 18.92647
 2018-Sep-04 15:36 Nm  23 05 55.946450 -06 52 18.94911
 2018-Sep-04 15:37 Nm  23 05 55.941735 -06 52 18.97175
 2018-Sep-04 15:38 Nm  23 05 55.937021 -06 52 18.99437
 2018-Sep-04 15:39 Nm  23 05 55.932308 -06 52 19.01699
 2018-Sep-04 15:40 Nm  23 05 55.927595 -06 52 19.03961
 2018-Sep-04 15:41 Nm  23 05 55.922883 -06 52 19.06221
 2018-Sep-04 15:42 Nm  23 05 55.918172 -06 52 19.08481
 2018-Sep-04 15:43 Nm  23 05 55.913461 -06 52 19.10739
 2018-Sep-04 15:44 Nm  23 05 55.908752 -06 52 19.12997
 2018-Sep-04 15:45 Cm  23 05 55.904042 -06 52 19.15255
 2018-Sep-04 15:46 Cm  23 05 55.899334 -06 52 19.17511
 2018-Sep-04 15:47 Cm  23 05 55.894626 -06 52 19.19767
 2018-Sep-04 15:48 Cm  23 05 55.889919 -06 52 19.22022
 2018-Sep-04 15:49 Cm  23 05 55.885213 -06 52 19.24276
 2018-Sep-04 15:50 Cm  23 05 55.880507 -06 52 19.26529
 2018-Sep-04 15:51 Cm  23 05 55.875802 -06 52 19.28782
 2018-Sep-04 15:52 Cm  23 05 55.871098 -06 52 19.31033
 2018-Sep-04 15:53 Cm  23 05 55.866395 -06 52 19.33284
 2018-Sep-04 15:54 Cm  23 05 55.861692 -06 52 19.35534
 2018-Sep-04 15:55 Cm  23 05 55.856990 -06 52 19.37784
 2018-Sep-04 15:56 Cm  23 05 55.852288 -06 52 19.40032
 2018-Sep-04 15:57 Cm  23 05 55.847587 -06 52 19.42280
